KUIPER-00141            
1 65966U 25228V   25308.11426602  .00027143  00000+0  80044-3 0  9996
2 65966  51.8803 206.6668 0005606 212.9979 147.0657 15.34797080  4489
KUIPER-00146            
1 65967U 25228W   25308.11473490  .00021156  00000+0  62763-3 0  9990
2 65967  51.8813 206.6773 0005538 214.2239 145.8391 15.34756280  4484
KUIPER-00149            
1 65968U 25228X   25308.11221575  .00026297  00000+0  77234-3 0  9996
2 65968  51.8805 206.6551 0005497 211.3751 148.6907 15.34942951  4487
KUIPER-00154            
1 65969U 25228Y   25308.11127056  .00026163  00000+0  76680-3 0  9992
2 65969  51.8803 206.6493 0005728 208.6715 151.3956 15.35010225  4483
KUIPER-00157            
1 65970U 25228Z   25308.11789882  .00031473  00000+0  93282-3 0  9992
2 65970  51.8814 206.6986 0005633 227.2154 132.8359 15.34558615  4483
STRIX-5                 
1 65971U 25229A   25308.13281231  .00005298  00000+0  40814-3 0  9990
2 65971  41.9269  93.0964 0039047  18.2503 341.9714 15.01733695  3107
ELECTRON R/B            
1 65972U 25229B   25307.80026377  .00004683  00000+0  36247-3 0  9994
2 65972  41.9268  94.9326 0039114  16.0549 344.1507 15.01728763  3037
ELECTRON KICK STAGE R/B 
1 65973U 25229C   25308.12131051  .00006829  00000+0  50919-3 0  9993
2 65973  41.9821  93.1233 0040204  18.3017 341.9246 15.02626717  3074
SDA_1664                
1 65974U 25230A   25308.08199913  .00000223  00000+0  18808-3 0  9995
2 65974  81.2992  60.4609 0003421  63.8437 296.3072 13.84696417  2651
SDA_1665                
1 65975U 25230B   25308.14418350  .00000322  00000+0  27209-3 0  9997
2 65975  81.3030  60.3913 0005012 105.8569 254.3141 13.85426760  2669
SDA_1666                
1 65976U 25230C   25308.15524162  .00000239  00000+0  20214-3 0  9994
2 65976  81.3001  60.3973 0003069  60.8448 299.3015 13.84625492  2661
SDA_1667                
1 65977U 25230D   25308.07952735  .00000220  00000+0  18492-3 0  9992
2 65977  81.2997  60.4586 0003942  74.3152 285.8440 13.84876186  2657
