CCSDS_OMM_VERS = 2.0
CREATION_DATE  = 
ORIGINATOR     = 

OBJECT_NAME    = KUIPER-00141
OBJECT_ID      = 2025-228V
CENTER_NAME    = EARTH
REF_FRAME      = TEME
TIME_SYSTEM    = UTC
MEAN_ELEMENT_THEORY = SGP/SGP4

EPOCH          = 2025-11-04T02:44:32.584128
MEAN_MOTION    = 15.34797080
ECCENTRICITY   = .0005606
INCLINATION    = 51.8803
RA_OF_ASC_NODE = 206.6668
ARG_OF_PERICENTER = 212.9979
MEAN_ANOMALY   = 147.0657

EPHEMERIS_TYPE = 0
CLASSIFICATION_TYPE = U
NORAD_CAT_ID   = 65966
ELEMENT_SET_NO = 999
REV_AT_EPOCH   = 448
BSTAR          = .80044E-3
MEAN_MOTION_DOT = .27143E-3
MEAN_MOTION_DDOT = 0

CCSDS_OMM_VERS = 2.0
CREATION_DATE  = 
ORIGINATOR     = 

OBJECT_NAME    = KUIPER-00146
OBJECT_ID      = 2025-228W
CENTER_NAME    = EARTH
REF_FRAME      = TEME
TIME_SYSTEM    = UTC
MEAN_ELEMENT_THEORY = SGP/SGP4

EPOCH          = 2025-11-04T02:45:13.095360
MEAN_MOTION    = 15.34756280
ECCENTRICITY   = .0005538
INCLINATION    = 51.8813
RA_OF_ASC_NODE = 206.6773
ARG_OF_PERICENTER = 214.2239
MEAN_ANOMALY   = 145.8391

EPHEMERIS_TYPE = 0
CLASSIFICATION_TYPE = U
NORAD_CAT_ID   = 65967
ELEMENT_SET_NO = 999
REV_AT_EPOCH   = 448
BSTAR          = .62763E-3
MEAN_MOTION_DOT = .21156E-3
MEAN_MOTION_DDOT = 0

CCSDS_OMM_VERS = 2.0
CREATION_DATE  = 
ORIGINATOR     = 

OBJECT_NAME    = KUIPER-00149
OBJECT_ID      = 2025-228X
CENTER_NAME    = EARTH
REF_FRAME      = TEME
TIME_SYSTEM    = UTC
MEAN_ELEMENT_THEORY = SGP/SGP4

EPOCH          = 2025-11-04T02:41:35.440800
MEAN_MOTION    = 15.34942951
ECCENTRICITY   = .0005497
INCLINATION    = 51.8805
RA_OF_ASC_NODE = 206.6551
ARG_OF_PERICENTER = 211.3751
MEAN_ANOMALY   = 148.6907

EPHEMERIS_TYPE = 0
CLASSIFICATION_TYPE = U
NORAD_CAT_ID   = 65968
ELEMENT_SET_NO = 999
REV_AT_EPOCH   = 448
BSTAR          = .77234E-3
MEAN_MOTION_DOT = .26297E-3
MEAN_MOTION_DDOT = 0

CCSDS_OMM_VERS = 2.0
CREATION_DATE  = 
ORIGINATOR     = 

OBJECT_NAME    = KUIPER-00154
OBJECT_ID      = 2025-228Y
CENTER_NAME    = EARTH
REF_FRAME      = TEME
TIME_SYSTEM    = UTC
MEAN_ELEMENT_THEORY = SGP/SGP4

EPOCH          = 2025-11-04T02:40:13.776384
MEAN_MOTION    = 15.35010225
ECCENTRICITY   = .0005728
INCLINATION    = 51.8803
RA_OF_ASC_NODE = 206.6493
ARG_OF_PERICENTER = 208.6715
MEAN_ANOMALY   = 151.3956

EPHEMERIS_TYPE = 0
CLASSIFICATION_TYPE = U
NORAD_CAT_ID   = 65969
ELEMENT_SET_NO = 999
REV_AT_EPOCH   = 448
BSTAR          = .7668E-3
MEAN_MOTION_DOT = .26163E-3
MEAN_MOTION_DDOT = 0

CCSDS_OMM_VERS = 2.0
CREATION_DATE  = 
ORIGINATOR     = 

OBJECT_NAME    = KUIPER-00157
OBJECT_ID      = 2025-228Z
CENTER_NAME    = EARTH
REF_FRAME      = TEME
TIME_SYSTEM    = UTC
MEAN_ELEMENT_THEORY = SGP/SGP4

EPOCH          = 2025-11-04T02:49:46.458048
MEAN_MOTION    = 15.34558615
ECCENTRICITY   = .0005633
INCLINATION    = 51.8814
RA_OF_ASC_NODE = 206.6986
ARG_OF_PERICENTER = 227.2154
MEAN_ANOMALY   = 132.8359

EPHEMERIS_TYPE = 0
CLASSIFICATION_TYPE = U
NORAD_CAT_ID   = 65970
ELEMENT_SET_NO = 999
REV_AT_EPOCH   = 448
BSTAR          = .93282E-3
MEAN_MOTION_DOT = .31473E-3
MEAN_MOTION_DDOT = 0

CCSDS_OMM_VERS = 2.0
CREATION_DATE  = 
ORIGINATOR     = 

OBJECT_NAME    = STRIX-5
OBJECT_ID      = 2025-229A
CENTER_NAME    = EARTH
REF_FRAME      = TEME
TIME_SYSTEM    = UTC
MEAN_ELEMENT_THEORY = SGP/SGP4

EPOCH          = 2025-11-04T03:11:14.983584
MEAN_MOTION    = 15.01733695
ECCENTRICITY   = .0039047
INCLINATION    = 41.9269
RA_OF_ASC_NODE = 93.0964
ARG_OF_PERICENTER = 18.2503
MEAN_ANOMALY   = 341.9714

EPHEMERIS_TYPE = 0
CLASSIFICATION_TYPE = U
NORAD_CAT_ID   = 65971
ELEMENT_SET_NO = 999
REV_AT_EPOCH   = 310
BSTAR          = .40814E-3
MEAN_MOTION_DOT = .5298E-4
MEAN_MOTION_DDOT = 0

CCSDS_OMM_VERS = 2.0
CREATION_DATE  = 
ORIGINATOR     = 

OBJECT_NAME    = ELECTRON R/B
OBJECT_ID      = 2025-229B
CENTER_NAME    = EARTH
REF_FRAME      = TEME
TIME_SYSTEM    = UTC
MEAN_ELEMENT_THEORY = SGP/SGP4

EPOCH          = 2025-11-03T19:12:22.789728
MEAN_MOTION    = 15.01728763
ECCENTRICITY   = .00391141
INCLINATION    = 41.9268
RA_OF_ASC_NODE = 94.9326
ARG_OF_PERICENTER = 16.0549
MEAN_ANOMALY   = 344.1507

EPHEMERIS_TYPE = 0
CLASSIFICATION_TYPE = U
NORAD_CAT_ID   = 65972
ELEMENT_SET_NO = 999
REV_AT_EPOCH   = 303
BSTAR          = .36246671E-3
MEAN_MOTION_DOT = .4683E-4
MEAN_MOTION_DDOT = 0

CCSDS_OMM_VERS = 2.0
CREATION_DATE  = 
ORIGINATOR     = 

OBJECT_NAME    = ELECTRON KICK STAGE R/B
OBJECT_ID      = 2025-229C
CENTER_NAME    = EARTH
REF_FRAME      = TEME
TIME_SYSTEM    = UTC
MEAN_ELEMENT_THEORY = SGP/SGP4

EPOCH          = 2025-11-04T02:54:41.228064
MEAN_MOTION    = 15.02626717
ECCENTRICITY   = .0040204
INCLINATION    = 41.9821
RA_OF_ASC_NODE = 93.1233
ARG_OF_PERICENTER = 18.3017
MEAN_ANOMALY   = 341.9246

EPHEMERIS_TYPE = 0
CLASSIFICATION_TYPE = U
NORAD_CAT_ID   = 65973
ELEMENT_SET_NO = 999
REV_AT_EPOCH   = 307
BSTAR          = .50919E-3
MEAN_MOTION_DOT = .6829E-4
MEAN_MOTION_DDOT = 0

CCSDS_OMM_VERS = 2.0
CREATION_DATE  = 
ORIGINATOR     = 

OBJECT_NAME    = SDA_1664
OBJECT_ID      = 2025-230A
CENTER_NAME    = EARTH
REF_FRAME      = TEME
TIME_SYSTEM    = UTC
MEAN_ELEMENT_THEORY = SGP/SGP4

EPOCH          = 2025-11-04T01:58:04.724832
MEAN_MOTION    = 13.84696417
ECCENTRICITY   = .0003421
INCLINATION    = 81.2992
RA_OF_ASC_NODE = 60.4609
ARG_OF_PERICENTER = 63.8437
MEAN_ANOMALY   = 296.3072

EPHEMERIS_TYPE = 0
CLASSIFICATION_TYPE = U
NORAD_CAT_ID   = 65974
ELEMENT_SET_NO = 999
REV_AT_EPOCH   = 265
BSTAR          = .18808E-3
MEAN_MOTION_DOT = .223E-5
MEAN_MOTION_DDOT = 0

CCSDS_OMM_VERS = 2.0
CREATION_DATE  = 
ORIGINATOR     = 

OBJECT_NAME    = SDA_1665
OBJECT_ID      = 2025-230B
CENTER_NAME    = EARTH
REF_FRAME      = TEME
TIME_SYSTEM    = UTC
MEAN_ELEMENT_THEORY = SGP/SGP4

EPOCH          = 2025-11-04T03:27:37.454400
MEAN_MOTION    = 13.85426760
ECCENTRICITY   = .0005012
INCLINATION    = 81.3030
RA_OF_ASC_NODE = 60.3913
ARG_OF_PERICENTER = 105.8569
MEAN_ANOMALY   = 254.3141

EPHEMERIS_TYPE = 0
CLASSIFICATION_TYPE = U
NORAD_CAT_ID   = 65975
ELEMENT_SET_NO = 999
REV_AT_EPOCH   = 266
BSTAR          = .27209E-3
MEAN_MOTION_DOT = .322E-5
MEAN_MOTION_DDOT = 0

CCSDS_OMM_VERS = 2.0
CREATION_DATE  = 
ORIGINATOR     = 

OBJECT_NAME    = SDA_1666
OBJECT_ID      = 2025-230C
CENTER_NAME    = EARTH
REF_FRAME      = TEME
TIME_SYSTEM    = UTC
MEAN_ELEMENT_THEORY = SGP/SGP4

EPOCH          = 2025-11-04T03:43:32.875968
MEAN_MOTION    = 13.84625492
ECCENTRICITY   = .0003069
INCLINATION    = 81.3001
RA_OF_ASC_NODE = 60.3973
ARG_OF_PERICENTER = 60.8448
MEAN_ANOMALY   = 299.3015

EPHEMERIS_TYPE = 0
CLASSIFICATION_TYPE = U
NORAD_CAT_ID   = 65976
ELEMENT_SET_NO = 999
REV_AT_EPOCH   = 266
BSTAR          = .20214E-3
MEAN_MOTION_DOT = .239E-5
MEAN_MOTION_DDOT = 0

CCSDS_OMM_VERS = 2.0
CREATION_DATE  = 
ORIGINATOR     = 

OBJECT_NAME    = SDA_1667
OBJECT_ID      = 2025-230D
CENTER_NAME    = EARTH
REF_FRAME      = TEME
TIME_SYSTEM    = UTC
MEAN_ELEMENT_THEORY = SGP/SGP4

EPOCH          = 2025-11-04T01:54:31.163040
MEAN_MOTION    = 13.84876186
ECCENTRICITY   = .0003942
INCLINATION    = 81.2997
RA_OF_ASC_NODE = 60.4586
ARG_OF_PERICENTER = 74.3152
MEAN_ANOMALY   = 285.8440

EPHEMERIS_TYPE = 0
CLASSIFICATION_TYPE = U
NORAD_CAT_ID   = 65977
ELEMENT_SET_NO = 999
REV_AT_EPOCH   = 265
BSTAR          = .18492E-3
MEAN_MOTION_DOT = .22E-5
MEAN_MOTION_DDOT = 0

